{
  "type": "FeatureCollection",
  "features": [
    {
      "type": "Feature",
      "id": "F0001",
      "properties": {
        "id": "F0001",
        "name": "North Paddy Sector A",
        "farmer_id": "farmer_01",
        "farmer_name": "Ramu K",
        "crop_type": "Rice Paddy Stubble",
        "area_acres": 14.5,
        "risk_score": 85,
        "top_reasons": ["dry spell duration (>12 days)", "past historical burn anomaly"],
        "countdown_hours": 36,
        "status": "monitoring"
      },
      "geometry": {
        "type": "Polygon",
        "coordinates": [
          [
            [76.9550, 11.0160],
            [76.9580, 11.0160],
            [76.9580, 11.0185],
            [76.9550, 11.0185],
            [76.9550, 11.0160]
          ]
        ]
      }
    },
    {
      "type": "Feature",
      "id": "F0002",
      "properties": {
        "id": "F0002",
        "name": "West Wheat Zone B",
        "farmer_id": "farmer_02",
        "farmer_name": "Senthil Kumar",
        "crop_type": "Wheat Stubble",
        "area_acres": 18.2,
        "risk_score": 62,
        "top_reasons": ["high moisture drop", "dense crop residue"],
        "countdown_hours": 48,
        "status": "monitoring"
      },
      "geometry": {
        "type": "Polygon",
        "coordinates": [
          [
            [76.9600, 11.0190],
            [76.9635, 11.0190],
            [76.9635, 11.0220],
            [76.9600, 11.0220],
            [76.9600, 11.0190]
          ]
        ]
      }
    },
    {
      "type": "Feature",
      "id": "F0003",
      "properties": {
        "id": "F0003",
        "name": "South Sugarcane Field C",
        "farmer_id": "farmer_03",
        "farmer_name": "Murugan P",
        "crop_type": "Sugarcane Trash",
        "area_acres": 22.0,
        "risk_score": 92,
        "top_reasons": ["critical harvest delay", "extreme ambient heat index"],
        "countdown_hours": 14,
        "status": "monitoring"
      },
      "geometry": {
        "type": "Polygon",
        "coordinates": [
          [
            [76.9520, 11.0110],
            [76.9560, 11.0110],
            [76.9560, 11.0140],
            [76.9520, 11.0140],
            [76.9520, 11.0110]
          ]
        ]
      }
    },
    {
      "type": "Feature",
      "id": "F0004",
      "properties": {
        "id": "F0004",
        "name": "East Corn Plot D",
        "farmer_id": "farmer_04",
        "farmer_name": "Anitha R",
        "crop_type": "Maize / Corn Stalks",
        "area_acres": 9.8,
        "risk_score": 35,
        "top_reasons": ["recent rainfall", "low biomass dryness"],
        "countdown_hours": 72,
        "status": "monitoring"
      },
      "geometry": {
        "type": "Polygon",
        "coordinates": [
          [
            [76.9650, 11.0140],
            [76.9680, 11.0140],
            [76.9680, 11.0170],
            [76.9650, 11.0170],
            [76.9650, 11.0140]
          ]
        ]
      }
    },
    {
      "type": "Feature",
      "id": "F0005",
      "properties": {
        "id": "F0005",
        "name": "Central Paddy Sector E",
        "farmer_id": "farmer_05",
        "farmer_name": "Venkatesh S",
        "crop_type": "Rice Paddy Stubble",
        "area_acres": 16.0,
        "risk_score": 78,
        "top_reasons": ["rapid drying trend", "high satellite thermal index"],
        "countdown_hours": 24,
        "status": "monitoring"
      },
      "geometry": {
        "type": "Polygon",
        "coordinates": [
          [
            [76.9570, 11.0230],
            [76.9610, 11.0230],
            [76.9610, 11.0260],
            [76.9570, 11.0260],
            [76.9570, 11.0230]
          ]
        ]
      }
    },
    {
      "type": "Feature",
      "id": "F0006",
      "properties": {
        "id": "F0006",
        "name": "Highland Cotton Residue F",
        "farmer_id": "farmer_06",
        "farmer_name": "Kavitha N",
        "crop_type": "Cotton Stalks",
        "area_acres": 12.3,
        "risk_score": 45,
        "top_reasons": ["moderate humidity", "partial mulching active"],
        "countdown_hours": 60,
        "status": "monitoring"
      },
      "geometry": {
        "type": "Polygon",
        "coordinates": [
          [
            [76.9480, 11.0190],
            [76.9515, 11.0190],
            [76.9515, 11.0220],
            [76.9480, 11.0220],
            [76.9480, 11.0190]
          ]
        ]
      }
    }
  ]
}
